[{"OBJECT_NAME":"STARLINK-36884","OBJECT_ID":"2026-040M","EPOCH":"2026-03-21T12:00:00.999648","MEAN_MOTION":15.75139275,"ECCENTRICITY":0.00013426,"INCLINATION":97.285,"RA_OF_ASC_NODE":29.5436,"ARG_OF_PERICENTER":84.6907,"MEAN_ANOMALY":337.012,"EPHEMERIS_TYPE":0,"CLASSIFICATION_TYPE":"U","NORAD_CAT_ID":68026,"ELEMENT_SET_NO":999,"REV_AT_EPOCH":432,"BSTAR":0.00044785459,"MEAN_MOTION_DOT":0.00067049,"MEAN_MOTION_DDOT":0},{"OBJECT_NAME":"STARLINK-36940","OBJECT_ID":"2026-040N","EPOCH":"2026-03-21T12:00:00.999648","MEAN_MOTION":15.75293781,"ECCENTRICITY":0.00012886,"INCLINATION":97.2855,"RA_OF_ASC_NODE":29.5724,"ARG_OF_PERICENTER":83.3059,"MEAN_ANOMALY":28.4073,"EPHEMERIS_TYPE":0,"CLASSIFICATION_TYPE":"U","NORAD_CAT_ID":68027,"ELEMENT_SET_NO":999,"REV_AT_EPOCH":442,"BSTAR":-0.0019165283,"MEAN_MOTION_DOT":-0.00278142,"MEAN_MOTION_DDOT":0},{"OBJECT_NAME":"STARLINK-36253","OBJECT_ID":"2026-040P","EPOCH":"2026-03-21T12:00:00.999648","MEAN_MOTION":15.62852174,"ECCENTRICITY":0.00019204,"INCLINATION":97.2857,"RA_OF_ASC_NODE":29.2825,"ARG_OF_PERICENTER":96.2451,"MEAN_ANOMALY":72.4969,"EPHEMERIS_TYPE":0,"CLASSIFICATION_TYPE":"U","NORAD_CAT_ID":68028,"ELEMENT_SET_NO":999,"REV_AT_EPOCH":442,"BSTAR":-0.024828681,"MEAN_MOTION_DOT":-0.01970102,"MEAN_MOTION_DDOT":0},{"OBJECT_NAME":"STARLINK-36944","OBJECT_ID":"2026-040Q","EPOCH":"2026-03-21T12:00:00.999648","MEAN_MOTION":15.75252096,"ECCENTRICITY":0.00012912,"INCLINATION":97.2856,"RA_OF_ASC_NODE":29.544,"ARG_OF_PERICENTER":94.0698,"MEAN_ANOMALY":333.6375,"EPHEMERIS_TYPE":0,"CLASSIFICATION_TYPE":"U","NORAD_CAT_ID":68029,"ELEMENT_SET_NO":999,"REV_AT_EPOCH":432,"BSTAR":-0.0011188205,"MEAN_MOTION_DOT":-0.00164284,"MEAN_MOTION_DDOT":0},{"OBJECT_NAME":"STARLINK-36942","OBJECT_ID":"2026-040R","EPOCH":"2026-03-21T12:00:00.999648","MEAN_MOTION":15.75260415,"ECCENTRICITY":0.00013965,"INCLINATION":97.2853,"RA_OF_ASC_NODE":29.5495,"ARG_OF_PERICENTER":98.2757,"MEAN_ANOMALY":333.4327,"EPHEMERIS_TYPE":0,"CLASSIFICATION_TYPE":"U","NORAD_CAT_ID":68030,"ELEMENT_SET_NO":999,"REV_AT_EPOCH":432,"BSTAR":-0.0015331509,"MEAN_MOTION_DOT":-0.00223617,"MEAN_MOTION_DDOT":0},{"OBJECT_NAME":"STARLINK-36913","OBJECT_ID":"2026-040S","EPOCH":"2026-03-21T12:00:00.999648","MEAN_MOTION":15.75287418,"ECCENTRICITY":0.0001467,"INCLINATION":97.2849,"RA_OF_ASC_NODE":29.5514,"ARG_OF_PERICENTER":88.7901,"MEAN_ANOMALY":346.9163,"EPHEMERIS_TYPE":0,"CLASSIFICATION_TYPE":"U","NORAD_CAT_ID":68031,"ELEMENT_SET_NO":999,"REV_AT_EPOCH":432,"BSTAR":-0.0017240696,"MEAN_MOTION_DOT":-0.0025095,"MEAN_MOTION_DDOT":0},{"OBJECT_NAME":"STARLINK-36935","OBJECT_ID":"2026-040T","EPOCH":"2026-03-21T12:00:00.999648","MEAN_MOTION":15.75308876,"ECCENTRICITY":0.00014149,"INCLINATION":97.2864,"RA_OF_ASC_NODE":29.5638,"ARG_OF_PERICENTER":115.3265,"MEAN_ANOMALY":348.384,"EPHEMERIS_TYPE":0,"CLASSIFICATION_TYPE":"U","NORAD_CAT_ID":68032,"ELEMENT_SET_NO":999,"REV_AT_EPOCH":442,"BSTAR":-0.0022557759,"MEAN_MOTION_DOT":-0.0032578,"MEAN_MOTION_DDOT":0},{"OBJECT_NAME":"STARLINK-36947","OBJECT_ID":"2026-040U","EPOCH":"2026-03-21T12:00:00.999648","MEAN_MOTION":15.75288324,"ECCENTRICITY":0.00017475,"INCLINATION":97.2848,"RA_OF_ASC_NODE":29.5535,"ARG_OF_PERICENTER":116.9496,"MEAN_ANOMALY":322.7529,"EPHEMERIS_TYPE":0,"CLASSIFICATION_TYPE":"U","NORAD_CAT_ID":68033,"ELEMENT_SET_NO":999,"REV_AT_EPOCH":432,"BSTAR":-0.0014503782,"MEAN_MOTION_DOT":-0.00212103,"MEAN_MOTION_DDOT":0},{"OBJECT_NAME":"STARLINK-36939","OBJECT_ID":"2026-040V","EPOCH":"2026-03-21T12:00:00.999648","MEAN_MOTION":15.75031805,"ECCENTRICITY":0.00026161,"INCLINATION":97.2848,"RA_OF_ASC_NODE":29.5623,"ARG_OF_PERICENTER":111.2242,"MEAN_ANOMALY":344.5407,"EPHEMERIS_TYPE":0,"CLASSIFICATION_TYPE":"U","NORAD_CAT_ID":68034,"ELEMENT_SET_NO":999,"REV_AT_EPOCH":432,"BSTAR":-0.00046185474,"MEAN_MOTION_DOT":-0.0006802,"MEAN_MOTION_DDOT":0},{"OBJECT_NAME":"STARLINK-36943","OBJECT_ID":"2026-040W","EPOCH":"2026-03-21T12:00:00.999648","MEAN_MOTION":15.75291016,"ECCENTRICITY":0.00014373,"INCLINATION":97.2857,"RA_OF_ASC_NODE":29.5675,"ARG_OF_PERICENTER":89.6024,"MEAN_ANOMALY":12.1205,"EPHEMERIS_TYPE":0,"CLASSIFICATION_TYPE":"U","NORAD_CAT_ID":68035,"ELEMENT_SET_NO":999,"REV_AT_EPOCH":437,"BSTAR":-0.0018903655,"MEAN_MOTION_DOT":-0.00274439,"MEAN_MOTION_DDOT":0},{"OBJECT_NAME":"STARLINK-36906","OBJECT_ID":"2026-040X","EPOCH":"2026-03-21T12:00:00.999648","MEAN_MOTION":15.75292536,"ECCENTRICITY":0.00016131,"INCLINATION":97.2851,"RA_OF_ASC_NODE":29.5608,"ARG_OF_PERICENTER":73.0869,"MEAN_ANOMALY":18.6283,"EPHEMERIS_TYPE":0,"CLASSIFICATION_TYPE":"U","NORAD_CAT_ID":68036,"ELEMENT_SET_NO":999,"REV_AT_EPOCH":432,"BSTAR":-0.0015470348,"MEAN_MOTION_DOT":-0.00225904,"MEAN_MOTION_DDOT":0},{"OBJECT_NAME":"STARLINK-36388","OBJECT_ID":"2026-040Y","EPOCH":"2026-03-21T12:00:00.999648","MEAN_MOTION":15.75281574,"ECCENTRICITY":0.00012731,"INCLINATION":97.285,"RA_OF_ASC_NODE":29.5647,"ARG_OF_PERICENTER":49.5478,"MEAN_ANOMALY":50.1693,"EPHEMERIS_TYPE":0,"CLASSIFICATION_TYPE":"U","NORAD_CAT_ID":68037,"ELEMENT_SET_NO":999,"REV_AT_EPOCH":427,"BSTAR":-0.0013136859,"MEAN_MOTION_DOT":-0.0019249,"MEAN_MOTION_DDOT":0},{"OBJECT_NAME":"STARLINK-36895","OBJECT_ID":"2026-040Z","EPOCH":"2026-03-21T12:00:00.999648","MEAN_MOTION":15.75285969,"ECCENTRICITY":0.00015983,"INCLINATION":97.2852,"RA_OF_ASC_NODE":29.556,"ARG_OF_PERICENTER":93.6304,"MEAN_ANOMALY":354.088,"EPHEMERIS_TYPE":0,"CLASSIFICATION_TYPE":"U","NORAD_CAT_ID":68038,"ELEMENT_SET_NO":999,"REV_AT_EPOCH":432,"BSTAR":-0.0014925731,"MEAN_MOTION_DOT":-0.00218091,"MEAN_MOTION_DDOT":0},{"OBJECT_NAME":"STARLINK-36373","OBJECT_ID":"2026-040AA","EPOCH":"2026-03-21T12:00:00.999648","MEAN_MOTION":15.7528806,"ECCENTRICITY":0.00013364,"INCLINATION":97.2853,"RA_OF_ASC_NODE":29.5546,"ARG_OF_PERICENTER":91.8131,"MEAN_ANOMALY":351.899,"EPHEMERIS_TYPE":0,"CLASSIFICATION_TYPE":"U","NORAD_CAT_ID":68039,"ELEMENT_SET_NO":999,"REV_AT_EPOCH":427,"BSTAR":-0.0018004007,"MEAN_MOTION_DOT":-0.0026173,"MEAN_MOTION_DDOT":0},{"OBJECT_NAME":"STARLINK-36711","OBJECT_ID":"2026-041A","EPOCH":"2026-03-21T12:10:27.346080","MEAN_MOTION":15.7543551,"ECCENTRICITY":0.00011729,"INCLINATION":53.1594,"RA_OF_ASC_NODE":3.1973,"ARG_OF_PERICENTER":85.9187,"MEAN_ANOMALY":274.1967,"EPHEMERIS_TYPE":0,"CLASSIFICATION_TYPE":"U","NORAD_CAT_ID":68040,"ELEMENT_SET_NO":999,"REV_AT_EPOCH":308,"BSTAR":0.002426676,"MEAN_MOTION_DOT":0.00392483,"MEAN_MOTION_DDOT":0},{"OBJECT_NAME":"STARLINK-36825","OBJECT_ID":"2026-041B","EPOCH":"2026-03-21T11:33:46.452096","MEAN_MOTION":15.81007373,"ECCENTRICITY":0.00017482,"INCLINATION":53.1594,"RA_OF_ASC_NODE":3.0265,"ARG_OF_PERICENTER":69.1216,"MEAN_ANOMALY":290.9994,"EPHEMERIS_TYPE":0,"CLASSIFICATION_TYPE":"U","NORAD_CAT_ID":68041,"ELEMENT_SET_NO":999,"REV_AT_EPOCH":308,"BSTAR":0.0014693354,"MEAN_MOTION_DOT":0.00301515,"MEAN_MOTION_DDOT":0}]
